[{"OBJECT_NAME":"NUSAT-37 (JOAN CLARKE)","OBJECT_ID":"2023-054AB","EPOCH":"2026-03-09T22:55:50.027232","MEAN_MOTION":15.49335243,"ECCENTRICITY":0.00050589,"INCLINATION":97.2746,"RA_OF_ASC_NODE":334.7213,"ARG_OF_PERICENTER":291.5812,"MEAN_ANOMALY":68.49,"EPHEMERIS_TYPE":0,"CLASSIFICATION_TYPE":"U","NORAD_CAT_ID":56203,"ELEMENT_SET_NO":999,"REV_AT_EPOCH":16324,"BSTAR":0.00082051936,"MEAN_MOTION_DOT":0.0004504,"MEAN_MOTION_DDOT":0},{"OBJECT_NAME":"COSMOS 2251 DEB","OBJECT_ID":"1993-036GV","EPOCH":"2026-03-09T11:43:36.136416","MEAN_MOTION":15.43449097,"ECCENTRICITY":0.00140641,"INCLINATION":73.9879,"RA_OF_ASC_NODE":98.5343,"ARG_OF_PERICENTER":278.4035,"MEAN_ANOMALY":81.558,"EPHEMERIS_TYPE":0,"CLASSIFICATION_TYPE":"U","NORAD_CAT_ID":34010,"ELEMENT_SET_NO":999,"REV_AT_EPOCH":90611,"BSTAR":0.0056310158,"MEAN_MOTION_DOT":0.00261542,"MEAN_MOTION_DDOT":0}]
